STARLINK-37799          
1 69317U 26119X   26166.61074637  .00167199  00000+0  85436-3 0  9991
2 69317  97.2821 192.3990 0001589 169.0419 191.0884 15.80883619  2544
STARLINK-37802          
1 69318U 26119Y   26166.60872504  .00012982  00000+0  68415-4 0  9998
2 69318  97.2820 192.4021 0002575 191.0887 169.0325 15.80813459  3798
STARLINK-37803          
1 69319U 26119Z   26166.58335648 -.02488060  00000+0 -28026-1 0  9998
2 69319  97.2846 192.3403 0002585 103.1196  33.2132 15.65915611  3747
GUOWANG TEST OBJECT A   
1 69320U 26120A   26158.46264223  .00009002  00000+0  24096-3 0  9996
2 69320  54.9967  71.5399 0009599 294.3963  65.6063 15.38803685  1198
GUOWANG TEST OBJECT B   
1 69321U 26120B   26165.93000448  .00009712  00000+0  26028-3 0  9999
2 69321  54.9982  37.8967 0009837 323.9642  36.0722 15.38665463  2342
GUOWANG TEST OBJECT C   
1 69322U 26120C   26158.91389784  .00016153  00000+0  41736-3 0  9993
2 69322  54.9968  69.4792 0009850 309.3319  50.6835 15.39284097  1266
GUOWANG TEST OBJECT D   
1 69323U 26120D   26165.92632308  .00004686  00000+0  12953-3 0  9993
2 69323  54.9977  37.8718 0011155 337.9003  22.1543 15.38988640  2346
QIANFAN-163             
1 69325U 26121A   26166.09175397  .00000002  00000+0 -14317-4 0  9991
2 69325  89.0141 300.7272 0019626 195.4766 164.5792 13.59759244  1872
QIANFAN-164             
1 69326U 26121B   26162.41240743  .00000112  00000+0  13228-3 0  9992
2 69326  89.0157 301.0998 0019383 205.3125 154.7084 13.60355109  1373
SZ-22 MODULE            
1 69328U 25272C   26166.19144066  .00017688  00000+0  21490-3 0  9996
2 69328  41.4806 334.2405 0006400  69.8006 290.3520 15.60144499  3011
STARLINK-37733          
1 69329U 26122A   26166.58335648  .00073031  00000+0  37840-3 0  9993
2 69329  97.2840 195.9320 0000283 111.4794 262.2954 15.80841472  3092
STARLINK-37772          
1 69330U 26122B   26166.58335648  .00066389  00000+0  34441-3 0  9997
2 69330  97.2840 195.9444 0001138  94.9761 308.6386 15.80835042  3045
STARLINK-37768          
1 69331U 26122C   26166.58335648  .00009933  00000+0  52507-4 0  9994
2 69331  97.2840 195.9475 0001080 112.5557 300.5076 15.80828431  3047
STARLINK-37833          
1 69332U 26122D   26166.58335648  .00059395  00000+0  30841-3 0  9998
2 69332  97.2844 195.9489 0000878  98.8720 316.9718 15.80838116  3044
STARLINK-37818          
1 69333U 26122E   26166.58335648 -.00024372  00000+0 -12670-3 0  9998
2 69333  97.2843 195.9445 0001117 100.9645 303.8605 15.80842076  3099
STARLINK-37868          
1 69334U 26122F   26166.58335648  .00009875  00000+0  52203-4 0  9995
2 69334  97.2846 195.9631 0000960 100.1602 346.8664 15.80831261  3096
STARLINK-37877          
1 69335U 26122G   26166.58335648 -.02502690  00000+0 -15198-1 0  9992
2 69335  97.2844 195.9624 0001519  92.8960 354.8213 15.80850618  3098
STARLINK-37791          
1 69336U 26122H   26166.58335648 -.00001278  00000+0 -59289-5 0  9990
2 69336  97.2834 195.9673 0000413  87.4732   9.1120 15.80833347  3098
STARLINK-37765          
1 69337U 26122J   26166.58335648  .00040294  00000+0  20974-3 0  9997
2 69337  97.2839 195.9683 0000717 101.1840 357.5261 15.80857565  3146
STARLINK-37788          
1 69338U 26122K   26166.58335648 -.02508083  00000+0 -15541-1 0  9999
2 69338  97.2839 195.9691 0001741  80.9770  21.6270 15.80419275  3095
STARLINK-37743          
1 69339U 26122L   26166.58335648  .00035889  00000+0  18692-3 0  9997
2 69339  97.2839 195.9639 0000938 104.2834 345.0666 15.80865496  3098
STARLINK-37780          
1 69340U 26122M   26166.58335648 -.00009793  00000+0 -50390-4 0  9998
2 69340  97.2842 195.9664 0001302  99.0894 355.8175 15.80839660  3149
STARLINK-37781          
1 69341U 26122N   26166.58335648 -.02474489  00000+0 -15221-1 0  9990
2 69341  97.2838 195.9607 0001744 106.7493 336.9893 15.80527630  3095
STARLINK-37782          
1 69342U 26122P   26166.58335648 -.00008648  00000+0 -44399-4 0  9990
2 69342  97.2846 195.9857 0000802  91.3025  49.7976 15.80842232  3095
STARLINK-37776          
1 69343U 26122Q   26166.58335648  .00004885  00000+0  26215-4 0  9995
2 69343  97.2842 195.9876 0001345  91.7128  54.8687 15.80828001  3098
STARLINK-37786          
1 69344U 26122R   26166.58335648 -.00190276  00000+0 -10101-2 0  9993
2 69344  97.2843 195.9947 0000863  91.7630  68.0624 15.80911063  3090
STARLINK-37785          
1 69345U 26122S   26166.58335648  .00031716  00000+0  16572-3 0  9994
2 69345  97.2840 195.9949 0001222  90.1737  72.5481 15.80815718  3092
STARLINK-37773          
1 69346U 26122T   26166.58335648 -.00083505  00000+0 -43928-3 0  9995
2 69346  97.2840 195.9930 0001621  98.4670  57.5441 15.80819942  3141
STARLINK-37744          
1 69347U 26122U   26166.58335648 -.02472609  00000+0 -16824-1 0  9998
2 69347  97.2843 195.9951 0001850  91.0049  71.4435 15.78317623  3099
