OBJECT_NAME,OBJECT_ID,EPOCH,MEAN_MOTION,ECCENTRICITY,INCLINATION,RA_OF_ASC_NODE,ARG_OF_PERICENTER,MEAN_ANOMALY,EPHEMERIS_TYPE,CLASSIFICATION_TYPE,NORAD_CAT_ID,ELEMENT_SET_NO,REV_AT_EPOCH,BSTAR,MEAN_MOTION_DOT,MEAN_MOTION_DDOT
STARLINK-37799,2026-119X,2026-06-15T14:39:28.486368,15.80883619,.00015891,97.2821,192.3990,169.0419,191.0884,0,U,69317,999,254,.85436385E-3,.167199E-2,0
STARLINK-37802,2026-119Y,2026-06-15T14:36:33.843456,15.80813459,.00025756,97.2820,192.4021,191.0887,169.0325,0,U,69318,999,379,.68415128E-4,.12982E-3,0
STARLINK-37803,2026-119Z,2026-06-15T14:00:01.999872,15.65915611,.00025858,97.2846,192.3403,103.1196,33.2132,0,U,69319,999,374,-.28025523E-1,-.248806E-1,0
GUOWANG TEST OBJECT A,2026-120A,2026-06-07T11:06:12.288672,15.38803685,.00095994,54.9967,71.5399,294.3963,65.6063,0,U,69320,999,119,.24095813E-3,.9002E-4,0
GUOWANG TEST OBJECT B,2026-120B,2026-06-14T22:19:12.387072,15.38665463,.0009837,54.9982,37.8967,323.9642,36.0722,0,U,69321,999,234,.26028E-3,.9712E-4,0
GUOWANG TEST OBJECT C,2026-120C,2026-06-07T21:56:00.773376,15.39284097,.00098504,54.9968,69.4792,309.3319,50.6835,0,U,69322,999,126,.41735581E-3,.16153E-3,0
GUOWANG TEST OBJECT D,2026-120D,2026-06-14T22:13:54.314112,15.38988640,.0011155,54.9977,37.8718,337.9003,22.1543,0,U,69323,999,234,.12953E-3,.4686E-4,0
QIANFAN-163,2026-121A,2026-06-15T02:12:07.543008,13.59759244,.0019626,89.0141,300.7272,195.4766,164.5792,0,U,69325,999,187,-.14317E-4,.2E-7,0
QIANFAN-164,2026-121B,2026-06-11T09:53:52.001952,13.60355109,.0019383,89.0157,301.0998,205.3125,154.7084,0,U,69326,999,137,.13228E-3,.112E-5,0
SZ-22 MODULE,2025-272C,2026-06-15T04:35:40.473024,15.60144499,.00064006,41.4806,334.2405,69.8006,290.3520,0,U,69328,999,301,.21490186E-3,.17688E-3,0
STARLINK-37733,2026-122A,2026-06-15T14:00:01.999872,15.80841472,.00002836,97.2840,195.9320,111.4794,262.2954,0,U,69329,999,309,.3783954E-3,.73031E-3,0
STARLINK-37772,2026-122B,2026-06-15T14:00:01.999872,15.80835042,.00011384,97.2840,195.9444,94.9761,308.6386,0,U,69330,999,304,.34440811E-3,.66389E-3,0
STARLINK-37768,2026-122C,2026-06-15T14:00:01.999872,15.80828431,.00010806,97.2840,195.9475,112.5557,300.5076,0,U,69331,999,304,.52507342E-4,.9933E-4,0
STARLINK-37833,2026-122D,2026-06-15T14:00:01.999872,15.80838116,.00008782,97.2844,195.9489,98.8720,316.9718,0,U,69332,999,304,.30841139E-3,.59395E-3,0
STARLINK-37818,2026-122E,2026-06-15T14:00:01.999872,15.80842076,.00011173,97.2843,195.9445,100.9645,303.8605,0,U,69333,999,309,-.12669999E-3,-.24372E-3,0
STARLINK-37868,2026-122F,2026-06-15T14:00:01.999872,15.80831261,.00009604,97.2846,195.9631,100.1602,346.8664,0,U,69334,999,309,.52202562E-4,.9875E-4,0
STARLINK-37877,2026-122G,2026-06-15T14:00:01.999872,15.80850618,.00015193,97.2844,195.9624,92.8960,354.8213,0,U,69335,999,309,-.15197737E-1,-.250269E-1,0
STARLINK-37791,2026-122H,2026-06-15T14:00:01.999872,15.80833347,.00004137,97.2834,195.9673,87.4732,9.1120,0,U,69336,999,309,-.5928922E-5,-.1278E-4,0
STARLINK-37765,2026-122J,2026-06-15T14:00:01.999872,15.80857565,.0000717,97.2839,195.9683,101.1840,357.5261,0,U,69337,999,314,.20974048E-3,.40294E-3,0
STARLINK-37788,2026-122K,2026-06-15T14:00:01.999872,15.80419275,.00017413,97.2839,195.9691,80.9770,21.6270,0,U,69338,999,309,-.15541387E-1,-.2508083E-1,0
STARLINK-37743,2026-122L,2026-06-15T14:00:01.999872,15.80865496,.00009385,97.2839,195.9639,104.2834,345.0666,0,U,69339,999,309,.18691708E-3,.35889E-3,0
STARLINK-37780,2026-122M,2026-06-15T14:00:01.999872,15.80839660,.0001302,97.2842,195.9664,99.0894,355.8175,0,U,69340,999,314,-.50389883E-4,-.9793E-4,0
STARLINK-37781,2026-122N,2026-06-15T14:00:01.999872,15.80527630,.00017448,97.2838,195.9607,106.7493,336.9893,0,U,69341,999,309,-.1522051E-1,-.2474489E-1,0
STARLINK-37782,2026-122P,2026-06-15T14:00:01.999872,15.80842232,.00008021,97.2846,195.9857,91.3025,49.7976,0,U,69342,999,309,-.44399287E-4,-.8648E-4,0
STARLINK-37776,2026-122Q,2026-06-15T14:00:01.999872,15.80828001,.00013452,97.2842,195.9876,91.7128,54.8687,0,U,69343,999,309,.26215398E-4,.4885E-4,0
STARLINK-37786,2026-122R,2026-06-15T14:00:01.999872,15.80911063,.00008639,97.2843,195.9947,91.7630,68.0624,0,U,69344,999,309,-.10100556E-2,-.190276E-2,0
STARLINK-37785,2026-122S,2026-06-15T14:00:01.999872,15.80815718,.00012224,97.2840,195.9949,90.1737,72.5481,0,U,69345,999,309,.16571987E-3,.31716E-3,0
STARLINK-37773,2026-122T,2026-06-15T14:00:01.999872,15.80819942,.0001621,97.2840,195.9930,98.4670,57.5441,0,U,69346,999,314,-.43928412E-3,-.83505E-3,0
STARLINK-37744,2026-122U,2026-06-15T14:00:01.999872,15.78317623,.00018504,97.2843,195.9951,91.0049,71.4435,0,U,69347,999,309,-.16824036E-1,-.2472609E-1,0
